NORAD_CAT_ID,OBJECT_NAME,OBJECT_TYPE,EPOCH,MEAN_MOTION,ECCENTRICITY,INCLINATION,RA_OF_ASC_NODE,ARG_OF_PERICENTER,MEAN_ANOMALY,BSTAR,MEAN_MOTION_DOT,MEAN_MOTION_DDOT,TLE_LINE0,TLE_LINE1,TLE_LINE2,SEMIMAJOR_AXIS,PERIOD,APOGEE,PERIGEE,DECAYED
55305.0,STARLINK-5316,PAYLOAD,2024-07-15 21:49:28,14.98324618,0.0002725,70.0009,101.9493,270.2067,89.878,1.1191e-05,4.1e-07,0.0,0 STARLINK-5316,1 55305U 23010AN  24197.90935221  .00000041  00000-0  11191-4 0  9990,2 55305  70.0009 101.9493 0002725 270.2067  89.8780 14.98324618 83134,6950.21,96.107,573.968,570.181,0.0
55305.0,STARLINK-5316,PAYLOAD,2024-07-16 02:37:52,14.98325447,0.0002776,70.0014,101.4446,271.0798,89.0043,2.3795e-05,1.91e-06,0.0,0 STARLINK-5316,1 55305U 23010AN  24198.10963222  .00000191  00000-0  23795-4 0  9994,2 55305  70.0014 101.4446 0002776 271.0798  89.0043 14.98325447 83167,6950.207,96.107,574.001,570.143,0.0
55305.0,STARLINK-5316,PAYLOAD,2024-07-16 20:15:20,14.98338087,0.0002635,70.0008,99.5935,257.3214,102.765,1.3012e-05,6.2e-07,0.0,0 STARLINK-5316,1 55305U 23010AN  24198.84398210  .00000062  00000-0  13012-4 0  9992,2 55305  70.0008  99.5935 0002635 257.3214 102.7650 14.98338087 82951,6950.168,96.106,573.864,570.202,0.0
55305.0,STARLINK-5316,PAYLOAD,2024-07-16 21:51:28,14.9833774,0.000261,70.0011,99.4257,256.3914,103.6954,1.7156e-05,1.12e-06,0.0,0 STARLINK-5316,1 55305U 23010AN  24198.91074197  .00000112  00000-0  17156-4 0  9994,2 55305  70.0011  99.4257 0002610 256.3914 103.6954 14.98337740 83289,6950.169,96.107,573.848,570.22,0.0
55305.0,STARLINK-5316,PAYLOAD,2024-07-17 10:40:32,14.9834745,0.0002304,70.0023,98.0752,279.1229,80.9669,-0.00037042,-4.512e-05,0.0,0 STARLINK-5316,1 55305U 23010AN  24199.44482400 -.00004512  00000-0 -37042-3 0  9998,2 55305  70.0023  98.0752 0002304 279.1229  80.9669 14.98347450 83367,6950.139,96.106,573.605,570.403,0.0
55305.0,STARLINK-5316,PAYLOAD,2024-07-17 20:17:21,14.98320131,0.0002793,70.0004,97.0679,271.3573,88.7266,1.6427e-05,1.03e-06,0.0,0 STARLINK-5316,1 55305U 23010AN  24199.84539335  .00000103  00000-0  16427-4 0  9997,2 55305  70.0004  97.0679 0002793 271.3573  88.7266 14.98320131 83109,6950.223,96.108,574.03,570.147,0.0
55305.0,STARLINK-5316,PAYLOAD,2024-07-17 23:29:37,14.98324217,0.0002794,70.0007,96.7332,263.4313,96.6528,9.7228e-06,2.3e-07,0.0,0 STARLINK-5316,1 55305U 23010AN  24199.97891096  .00000023  00000-0  97228-5 0  9996,2 55305  70.0007  96.7332 0002794 263.4313  96.6528 14.98324217 83444,6950.211,96.107,574.018,570.134,0.0
55305.0,STARLINK-5316,PAYLOAD,2024-07-18 10:42:34,14.98324316,0.0002965,70.0002,95.553,270.2376,89.8443,-3.3775e-05,-4.96e-06,0.0,0 STARLINK-5316,1 55305U 23010AN  24200.44623388 -.00000496  00000-0 -33775-4 0  9990,2 55305  70.0002  95.5530 0002965 270.2376  89.8443 14.98324316 83519,6950.21,96.107,574.136,570.015,0.0
55305.0,STARLINK-5316,PAYLOAD,2024-07-18 20:19:23,14.98324486,0.0002992,70.0002,94.5419,269.7876,90.294,-4.0405e-05,-5.75e-06,0.0,0 STARLINK-5316,1 55305U 23010AN  24200.84679550 -.00000575  00000-0 -40405-4 0  9992,2 55305  70.0002  94.5419 0002992 269.7876  90.2940 14.98324486 83259,6950.21,96.107,574.154,569.995,0.0
55305.0,STARLINK-5316,PAYLOAD,2024-07-18 21:55:31,14.98324469,0.0002996,70.0003,94.3736,269.7539,90.3277,-3.9465e-05,-5.64e-06,0.0,0 STARLINK-5316,1 55305U 23010AN  24200.91355573 -.00000564  00000-0 -39465-4 0  9998,2 55305  70.0003  94.3736 0002996 269.7539  90.3277 14.98324469 83581,6950.21,96.107,574.157,569.993,0.0
55305.0,STARLINK-5316,PAYLOAD,2024-07-19 02:43:54,14.98333717,0.0002892,70.0003,93.868,262.8924,97.1906,-1.242e-05,-2.41e-06,0.0,0 STARLINK-5316,1 55305U 23010AN  24201.11382911 -.00000241  00000-0 -12420-4 0  9991,2 55305  70.0003  93.8680 0002892 262.8924  97.1906 14.98333717 83298,6950.181,96.107,574.056,570.036,0.0
55305.0,STARLINK-5316,PAYLOAD,2024-07-19 10:44:35,14.98335946,0.0002854,70.0004,93.0259,272.2425,87.8407,-3.9895e-05,-5.69e-06,0.0,0 STARLINK-5316,1 55305U 23010AN  24201.44762879 -.00000569  00000-0 -39895-4 0  9990,2 55305  70.0004  93.0259 0002854 272.2425  87.8407 14.98335946 83661,6950.175,96.107,574.023,570.056,0.0
55305.0,STARLINK-5316,PAYLOAD,2024-07-19 21:57:31,14.98326175,0.0003156,70.0004,91.8476,269.1676,90.9121,0.00020064,2.302e-05,0.0,0 STARLINK-5316,1 55305U 23010AN  24201.91494928  .00002302  00000-0  20064-3 0  9991,2 55305  70.0004  91.8476 0003156 269.1676  90.9121 14.98326175 83737,6950.205,96.107,574.263,569.876,0.0
55305.0,STARLINK-5316,PAYLOAD,2024-07-20 02:45:55,14.98334754,0.0003109,70.0002,91.343,268.2436,91.8367,0.00020096,2.306e-05,0.0,0 STARLINK-5316,1 55305U 23010AN  24202.11522436  .00002306  00000-0  20096-3 0  9999,2 55305  70.0002  91.3430 0003109 268.2436  91.8367 14.98334754 83444,6950.178,96.107,574.204,569.882,0.0
55305.0,STARLINK-5316,PAYLOAD,2024-07-20 20:23:24,14.98327968,0.0002983,70.0006,89.4912,268.4134,91.6683,9.1909e-05,1.004e-05,0.0,0 STARLINK-5316,1 55305U 23010AN  24202.84959240  .00001004  00000-0  91909-4 0  9992,2 55305  70.0006  89.4912 0002983 268.4134  91.6683 14.98327968 83557,6950.199,96.107,574.137,569.991,0.0
55305.0,STARLINK-5316,PAYLOAD,2024-07-21 02:47:56,14.98339199,0.0003105,70.0001,88.8182,267.6479,92.4325,0.00016849,1.918e-05,0.0,0 STARLINK-5316,1 55305U 23010AN  24203.11662333  .00001918  00000-0  16849-3 0  9990,2 55305  70.0001  88.8182 0003105 267.6479  92.4325 14.98339199 83599,6950.164,96.106,574.187,569.871,0.0
55305.0,STARLINK-5316,PAYLOAD,2024-07-21 20:25:25,14.98330727,0.00029,70.0005,86.967,267.9111,92.1716,-9.3358e-07,-1.04e-06,0.0,0 STARLINK-5316,1 55305U 23010AN  24203.85099210 -.00000104  00000-0 -93358-6 0  9990,2 55305  70.0005  86.9670 0002900 267.9111  92.1716 14.98330727 83704,6950.191,96.107,574.071,570.04,0.0
55305.0,STARLINK-5316,PAYLOAD,2024-07-21 22:01:33,14.98330707,0.0002831,70.0008,86.7998,266.258,93.8255,2.1752e-05,1.67e-06,0.0,0 STARLINK-5316,1 55305U 23010AN  24203.91775134  .00000167  00000-0  21752-4 0  9997,2 55305  70.0008  86.7998 0002831 266.2580  93.8255 14.98330707 84034,6950.191,96.107,574.023,570.088,0.0
55305.0,STARLINK-5316,PAYLOAD,2024-07-22 02:49:57,14.98332596,0.0002707,70.0011,86.2964,255.064,105.022,1.1413e-05,4.3e-07,0.0,0 STARLINK-5316,1 55305U 23010AN  24204.11802948  .00000043  00000-0  11413-4 0  9990,2 55305  70.0011  86.2964 0002707 255.0640 105.0220 14.98332596 84060,6950.185,96.107,573.931,570.168,0.0
55305.0,STARLINK-5316,PAYLOAD,2024-07-22 15:39:01,14.98336812,0.0002678,70.0009,84.9488,258.0533,102.0325,7.9875e-05,8.6e-06,0.0,0 STARLINK-5316,1 55305U 23010AN  24204.65210423  .00000860  00000-0  79875-4 0  9993,2 55305  70.0009  84.9488 0002678 258.0533 102.0325 14.98336812 83825,6950.172,96.107,573.898,570.176,0.0
55305.0,STARLINK-5316,PAYLOAD,2024-07-22 22:03:34,14.9833507,0.0002717,70.0007,84.2753,259.3663,100.719,7.9881e-05,8.6e-06,0.0,0 STARLINK-5316,1 55305U 23010AN  24204.91914455  .00000860  00000-0  79881-4 0  9995,2 55305  70.0007  84.2753 0002717 259.3663 100.7190 14.98335070 84183,6950.177,96.107,573.931,570.154,0.0
55305.0,STARLINK-5316,PAYLOAD,2024-07-23 01:15:50,14.9832143,0.0002765,70.0007,83.9387,254.5872,105.4982,0.00039621,4.637e-05,0.0,0 STARLINK-5316,1 55305U 23010AN  24205.05266657  .00004637  00000-0  39621-3 0  9998,2 55305  70.0007  83.9387 0002765 254.5872 105.4982 14.98321430 83886,6950.219,96.108,574.006,570.163,0.0
55305.0,STARLINK-5316,PAYLOAD,2024-07-23 09:16:30,14.98347115,0.0002883,70.0002,83.0959,269.9952,90.0877,-0.0002174,-2.687e-05,0.0,0 STARLINK-5316,1 55305U 23010AN  24205.38646137 -.00002687  00000-0 -21740-3 0  9997,2 55305  70.0002  83.0959 0002883 269.9952  90.0877 14.98347115 83933,6950.14,96.106,574.009,570.001,0.0
55305.0,STARLINK-5316,PAYLOAD,2024-07-23 15:41:03,14.98314274,0.0002476,70.0016,82.4215,273.2018,86.8858,0.00031513,3.668e-05,0.0,0 STARLINK-5316,1 55305U 23010AN  24205.65351091  .00003668  00000-0  31513-3 0  9996,2 55305  70.0016  82.4215 0002476 273.2018  86.8858 14.98314274 83971,6950.242,96.108,573.827,570.386,0.0
55305.0,STARLINK-5316,PAYLOAD,2024-07-24 01:17:52,14.98307196,0.0002821,70.001,81.4113,274.9912,85.0925,0.00015196,1.72e-05,0.0,0 STARLINK-5316,1 55305U 23010AN  24206.05408372  .00001720  00000-0  15196-3 0  9992,2 55305  70.0010  81.4113 0002821 274.9912  85.0925 14.98307196 84035,6950.263,96.108,574.089,570.168,0.0
55305.0,STARLINK-5316,PAYLOAD,2024-07-24 22:07:36,14.98337361,0.0002822,69.9995,79.2225,267.2167,92.8669,7.6907e-06,-1e-08,0.0,0 STARLINK-5316,1 55305U 23010AN  24206.92194695 -.00000001  00000-0  76907-5 0  9999,2 55305  69.9995  79.2225 0002822 267.2167  92.8669 14.98337361 84488,6950.17,96.107,573.996,570.074,0.0
55305.0,STARLINK-5316,PAYLOAD,2024-07-25 01:19:52,14.98339614,0.0002654,70.0008,78.8854,276.0117,84.074,9.6639e-05,1.061e-05,0.0,0 STARLINK-5316,1 55305U 23010AN  24207.05546377  .00001061  00000-0  96639-4 0  9991,2 55305  70.0008  78.8854 0002654 276.0117  84.0740 14.98339614 84188,6950.163,96.106,573.873,570.184,0.0
55305.0,STARLINK-5316,PAYLOAD,2024-07-25 22:09:37,14.98322498,0.0003109,70.0011,76.6983,276.8346,83.2459,0.00021326,2.452e-05,0.0,0 STARLINK-5316,1 55305U 23010AN  24207.92335019  .00002452  00000-0  21326-3 0  9991,2 55305  70.0011  76.6983 0003109 276.8346  83.2459 14.98322498 84639,6950.216,96.107,574.242,569.92,0.0
55305.0,STARLINK-5316,PAYLOAD,2024-07-26 01:21:53,14.98328738,0.0003413,70.0005,76.3573,262.225,97.8522,0.00011272,1.252e-05,0.0,0 STARLINK-5316,1 55305U 23010AN  24208.05686588  .00001252  00000-0  11272-3 0  9992,2 55305  70.0005  76.3573 0003413 262.2250  97.8522 14.98328738 84337,6950.197,96.107,574.434,569.69,0.0
55305.0,STARLINK-5316,PAYLOAD,2024-07-26 22:11:37,14.98340208,0.0002995,70.0004,74.1736,273.6572,86.4244,5.9419e-05,6.16e-06,0.0,0 STARLINK-5316,1 55305U 23010AN  24208.92473978  .00000616  00000-0  59419-4 0  9994,2 55305  70.0004  74.1736 0002995 273.6572  86.4244 14.98340208 84780,6950.161,96.106,574.108,569.945,0.0
